NORAD_CAT_ID,OBJECT_NAME,OBJECT_TYPE,EPOCH,MEAN_MOTION,ECCENTRICITY,INCLINATION,RA_OF_ASC_NODE,ARG_OF_PERICENTER,MEAN_ANOMALY,BSTAR,MEAN_MOTION_DOT,MEAN_MOTION_DDOT,TLE_LINE0,TLE_LINE1,TLE_LINE2,SEMIMAJOR_AXIS,PERIOD,APOGEE,PERIGEE,DECAYED
53136.0,STARLINK-4152,PAYLOAD,2023-09-24 04:35:55,15.0884805,0.000144,53.2166,243.1445,90.5049,269.6108,8.9974e-05,1.145e-05,0.0,0 STARLINK-4152,1 53136U 22083E   23267.19161296  .00001145  00000-0  89974-4 0  9990,2 53136  53.2166 243.1445 0001440  90.5049 269.6108 15.08848050 66713,6917.856,95.437,540.717,538.725,0.0
53136.0,STARLINK-4152,PAYLOAD,2023-09-24 22:05:10,15.08840387,0.0001378,53.217,239.8774,92.8239,267.2911,5.7776e-05,6.32e-06,0.0,0 STARLINK-4152,1 53136U 22083E   23267.92025825  .00000632  00000-0  57776-4 0  9993,2 53136  53.2170 239.8774 0001378  92.8239 267.2911 15.08840387 66824,6917.879,95.438,540.697,538.791,0.0
53136.0,STARLINK-4152,PAYLOAD,2023-09-25 04:26:42,15.0884598,0.0001392,53.2165,238.6852,91.9481,268.167,0.00010089,1.318e-05,0.0,0 STARLINK-4152,1 53136U 22083E   23268.18521426  .00001318  00000-0  10089-3 0  9997,2 53136  53.2165 238.6852 0001392  91.9481 268.1670 15.08845980 66867,6917.862,95.437,540.69,538.764,0.0
53136.0,STARLINK-4152,PAYLOAD,2023-09-25 15:34:23,15.08853154,0.0001408,53.217,236.6047,92.4038,267.7115,0.00012672,1.73e-05,0.0,0 STARLINK-4152,1 53136U 22083E   23268.64888758  .00001730  00000-0  12672-3 0  9990,2 53136  53.2170 236.6047 0001408  92.4038 267.7115 15.08853154 66578,6917.84,95.437,540.679,538.731,0.0
53136.0,STARLINK-4152,PAYLOAD,2023-09-25 21:55:56,15.08850765,0.0001446,53.2158,235.4156,89.447,270.6688,0.00024015,3.537e-05,0.0,0 STARLINK-4152,1 53136U 22083E   23268.91385097  .00003537  00000-0  24015-3 0  9999,2 53136  53.2158 235.4156 0001446  89.4470 270.6688 15.08850765 66977,6917.847,95.437,540.713,538.712,0.0
53136.0,STARLINK-4152,PAYLOAD,2023-09-26 04:17:28,15.08863936,0.0001419,53.2149,234.2249,103.0093,257.1057,0.00047519,7.288e-05,0.0,0 STARLINK-4152,1 53136U 22083E   23269.17880435  .00007288  00000-0  47519-3 0  9995,2 53136  53.2149 234.2249 0001419 103.0093 257.1057 15.08863936 67011,6917.807,95.436,540.654,538.691,0.0
53136.0,STARLINK-4152,PAYLOAD,2023-09-27 00:57:30,15.08843546,0.0001299,53.2151,230.3588,110.5435,249.5696,8.734e-05,1.103e-05,0.0,0 STARLINK-4152,1 53136U 22083E   23270.03993129  .00001103  00000-0  87340-4 0  9994,2 53136  53.2151 230.3588 0001299 110.5435 249.5696 15.08843546 66788,6917.87,95.437,540.633,538.836,0.0
53136.0,STARLINK-4152,PAYLOAD,2023-09-27 07:19:02,15.08845605,0.0001314,53.2149,229.1689,100.7764,259.3376,0.00024156,3.559e-05,0.0,0 STARLINK-4152,1 53136U 22083E   23270.30489050  .00003559  00000-0  24156-3 0  9999,2 53136  53.2149 229.1689 0001314 100.7764 259.3376 15.08845605 67184,6917.863,95.437,540.637,538.819,0.0
53136.0,STARLINK-4152,PAYLOAD,2023-09-28 02:23:41,15.08827768,0.0001946,53.2152,225.5919,141.7599,218.3531,7.1542e-05,8.5e-06,0.0,0 STARLINK-4152,1 53136U 22083E   23271.09978012  .00000850  00000-0  71542-4 0  9990,2 53136  53.2152 225.5919 0001946 141.7599 218.3531 15.08827768 66947,6917.918,95.438,541.129,538.437,0.0
53136.0,STARLINK-4152,PAYLOAD,2023-09-28 07:09:50,15.08826208,0.0001259,53.2156,224.7076,118.5813,241.5306,-8.3353e-05,-1.614e-05,0.0,0 STARLINK-4152,1 53136U 22083E   23271.29850107 -.00001614  00000-0 -83353-4 0  9990,2 53136  53.2156 224.7076 0001259 118.5813 241.5306 15.08826208 67334,6917.923,95.438,540.659,538.917,0.0
53136.0,STARLINK-4152,PAYLOAD,2023-09-29 07:00:37,15.08845553,0.0001276,53.2159,220.2468,132.3817,227.7283,0.00055774,8.601e-05,0.0,0 STARLINK-4152,1 53136U 22083E   23272.29210511  .00008601  00000-0  55774-3 0  9996,2 53136  53.2159 220.2468 0001276 132.3817 227.7283 15.08845553 67121,6917.863,95.437,540.611,538.846,0.0
53136.0,STARLINK-4152,PAYLOAD,2023-09-30 03:40:38,15.08862484,0.0001112,53.2163,216.3808,116.5465,243.5641,0.00058059,8.97e-05,0.0,0 STARLINK-4152,1 53136U 22083E   23273.15321794  .00008970  00000-0  58059-3 0  9996,2 53136  53.2163 216.3808 0001112 116.5465 243.5641 15.08862484 67612,6917.812,95.436,540.446,538.907,0.0
53136.0,STARLINK-4152,PAYLOAD,2023-09-30 13:12:56,15.0885282,0.0001294,53.218,214.5914,82.567,277.5469,0.00034467,5.204e-05,0.0,0 STARLINK-4152,1 53136U 22083E   23273.55065876  .00005204  00000-0  34467-3 0  9990,2 53136  53.2180 214.5914 0001294  82.5670 277.5469 15.08852820 67315,6917.841,95.437,540.601,538.811,0.0
53136.0,STARLINK-4152,PAYLOAD,2023-10-01 01:56:02,15.08835269,0.0001103,53.2153,212.2204,95.1706,264.9412,-1.8695e-05,-5.85e-06,0.0,0 STARLINK-4152,1 53136U 22083E   23274.08058374 -.00000585  00000-0 -18695-4 0  9999,2 53136  53.2153 212.2204 0001103  95.1706 264.9412 15.08835269 67395,6917.895,95.438,540.523,538.997,0.0
53136.0,STARLINK-4152,PAYLOAD,2023-10-01 05:06:48,15.08848726,0.0001262,53.2161,211.6234,84.6537,275.4599,0.00039681,6.034e-05,0.0,0 STARLINK-4152,1 53136U 22083E   23274.21306250  .00006034  00000-0  39681-3 0  9993,2 53136  53.2161 211.6234 0001262  84.6537 275.4599 15.08848726 67419,6917.854,95.437,540.592,538.846,0.0
53136.0,STARLINK-4152,PAYLOAD,2023-10-01 13:03:44,15.08843814,0.0001475,53.2161,210.135,84.8881,275.2279,0.0007938,0.00012369,0.0,0 STARLINK-4152,1 53136U 22083E   23274.54426570  .00012369  00000-0  79380-3 0  9995,2 53136  53.2161 210.1350 0001475  84.8881 275.2279 15.08843814 67823,6917.869,95.437,540.754,538.713,0.0
53136.0,STARLINK-4152,PAYLOAD,2023-10-02 04:57:35,15.08870701,0.0001105,53.2154,207.1648,79.4768,280.6349,0.0011246,0.0001767,0.0,0 STARLINK-4152,1 53136U 22083E   23275.20665644  .00017670  00000-0  11246-2 0  9992,2 53136  53.2154 207.1648 0001105  79.4768 280.6349 15.08870701 67569,6917.787,95.436,540.416,538.887,0.0
53136.0,STARLINK-4152,PAYLOAD,2023-10-02 19:16:04,15.08844534,0.0002342,53.2154,204.49,82.5217,277.6041,0.00028235,4.209e-05,0.0,0 STARLINK-4152,1 53136U 22083E   23275.80282540  .00004209  00000-0  28235-3 0  9999,2 53136  53.2154 204.4900 0002342  82.5217 277.6041 15.08844534 67658,6917.867,95.437,541.352,538.111,0.0
53136.0,STARLINK-4152,PAYLOAD,2023-10-03 12:45:19,15.08835394,0.000158,53.2149,201.2185,80.1593,279.9578,0.0006812,0.00010569,0.0,0 STARLINK-4152,1 53136U 22083E   23276.53147112  .00010569  00000-0  68120-3 0  9998,2 53136  53.2149 201.2185 0001580  80.1593 279.9578 15.08835394 68123,6917.894,95.438,540.852,538.666,0.0
53136.0,STARLINK-4152,PAYLOAD,2023-10-03 19:06:51,15.08828222,0.0001602,53.2167,200.0251,101.653,258.4642,0.00042824,6.532e-05,0.0,0 STARLINK-4152,1 53136U 22083E   23276.79643404  .00006532  00000-0  42824-3 0  9999,2 53136  53.2167 200.0251 0001602 101.6530 258.4642 15.08828222 67809,6917.916,95.438,540.89,538.673,0.0
53136.0,STARLINK-4152,PAYLOAD,2023-10-03 22:17:38,15.08839278,0.000133,53.2147,199.4338,86.3525,273.7619,0.00058381,9.015e-05,0.0,0 STARLINK-4152,1 53136U 22083E   23276.92891219  .00009015  00000-0  58381-3 0  9997,2 53136  53.2147 199.4338 0001330  86.3525 273.7619 15.08839278 68184,6917.883,95.438,540.668,538.828,0.0
53136.0,STARLINK-4152,PAYLOAD,2023-10-04 18:57:38,15.08856031,0.0001611,53.2145,195.5704,77.3998,282.7175,0.00087396,0.00013655,0.0,0 STARLINK-4152,1 53136U 22083E   23277.79003191  .00013655  00000-0  87396-3 0  9990,2 53136  53.2145 195.5704 0001611  77.3998 282.7175 15.08856031 68310,6917.831,95.437,540.811,538.582,0.0
53136.0,STARLINK-4152,PAYLOAD,2023-10-05 01:19:10,15.08864554,0.0001471,53.2155,194.3782,96.3038,263.8122,0.00092207,0.00014427,0.0,0 STARLINK-4152,1 53136U 22083E   23278.05498679  .00014427  00000-0  92207-3 0  9994,2 53136  53.2155 194.3782 0001471  96.3038 263.8122 15.08864554 67998,6917.805,95.436,540.688,538.653,0.0
53136.0,STARLINK-4152,PAYLOAD,2023-10-05 04:29:56,15.08871894,0.0001482,53.2155,193.7832,96.7626,263.3535,0.0010719,0.00016827,0.0,0 STARLINK-4152,1 53136U 22083E   23278.18746377  .00016827  00000-0  10719-2 0  9992,2 53136  53.2155 193.7832 0001482  96.7626 263.3535 15.08871894 68377,6917.783,95.436,540.673,538.623,0.0
53136.0,STARLINK-4152,PAYLOAD,2023-10-05 21:59:11,15.08851537,0.0001392,53.2154,190.5122,92.6135,267.5017,0.00034795,5.256e-05,0.0,0 STARLINK-4152,1 53136U 22083E   23278.91610486  .00005256  00000-0  34795-3 0  9999,2 53136  53.2154 190.5122 0001392  92.6135 267.5017 15.08851537 68488,6917.845,95.437,540.673,538.747,0.0
53136.0,STARLINK-4152,PAYLOAD,2023-10-06 02:45:20,15.08857864,0.0001288,53.2153,189.6214,85.0534,275.0605,0.00071383,0.00011096,0.0,0 STARLINK-4152,1 53136U 22083E   23279.11482319  .00011096  00000-0  71383-3 0  9997,2 53136  53.2153 189.6214 0001288  85.0534 275.0605 15.08857864 68151,6917.826,95.436,540.582,538.8,0.0
53136.0,STARLINK-4152,PAYLOAD,2023-10-06 10:42:16,15.0883364,0.0001577,53.2158,188.1333,88.2079,271.9093,0.00020196,2.927e-05,0.0,0 STARLINK-4152,1 53136U 22083E   23279.44602567  .00002927  00000-0  20196-3 0  9991,2 53136  53.2158 188.1333 0001577  88.2079 271.9093 15.08833640 68200,6917.9,95.438,540.856,538.674,0.0
53136.0,STARLINK-4152,PAYLOAD,2023-10-06 21:49:59,15.08822766,0.0001399,53.2157,186.0521,102.2055,257.9094,0.00038951,5.914e-05,0.0,0 STARLINK-4152,1 53136U 22083E   23279.90971326  .00005914  00000-0  38951-3 0  9991,2 53136  53.2157 186.0521 0001399 102.2055 257.9094 15.08822766 68637,6917.933,95.439,540.766,538.83,0.0
53136.0,STARLINK-4152,PAYLOAD,2023-10-07 01:00:45,15.08832485,0.0001338,53.2153,185.4608,106.3707,253.7433,0.00019976,2.892e-05,0.0,0 STARLINK-4152,1 53136U 22083E   23280.04219243  .00002892  00000-0  19976-3 0  9999,2 53136  53.2153 185.4608 0001338 106.3707 253.7433 15.08832485 68296,6917.903,95.438,540.694,538.843,0.0
53136.0,STARLINK-4152,PAYLOAD,2023-10-07 02:36:08,15.08834924,0.0001342,53.2158,185.1629,100.4947,259.6196,0.00034751,5.246e-05,0.0,0 STARLINK-4152,1 53136U 22083E   23280.10843267  .00005246  00000-0  34751-3 0  9999,2 53136  53.2158 185.1629 0001342 100.4947 259.6196 15.08834924 68669,6917.896,95.438,540.689,538.833,0.0
